[{"OBJECT_NAME":"NOAA 1","OBJECT_ID":"1970-106A","EPOCH":"2026-03-30T13:45:22.529952","MEAN_MOTION":12.54049612,"ECCENTRICITY":0.00320236,"INCLINATION":101.3468,"RA_OF_ASC_NODE":127.7189,"ARG_OF_PERICENTER":140.2346,"MEAN_ANOMALY":27.6546,"EPHEMERIS_TYPE":0,"CLASSIFICATION_TYPE":"U","NORAD_CAT_ID":4793,"ELEMENT_SET_NO":999,"REV_AT_EPOCH":53083,"BSTAR":0.00014046549,"MEAN_MOTION_DOT":-2.0e-7,"MEAN_MOTION_DDOT":0},{"OBJECT_NAME":"NOAA 2 (ITOS-D)","OBJECT_ID":"1972-082A","EPOCH":"2026-03-30T13:58:59.482560","MEAN_MOTION":12.53212529,"ECCENTRICITY":0.00037708,"INCLINATION":102.0145,"RA_OF_ASC_NODE":107.2768,"ARG_OF_PERICENTER":323.9262,"MEAN_ANOMALY":147.1458,"EPHEMERIS_TYPE":0,"CLASSIFICATION_TYPE":"U","NORAD_CAT_ID":6235,"ELEMENT_SET_NO":999,"REV_AT_EPOCH":44510,"BSTAR":0.00018145973,"MEAN_MOTION_DOT":-1.8e-7,"MEAN_MOTION_DDOT":0},{"OBJECT_NAME":"NOAA 3","OBJECT_ID":"1973-086A","EPOCH":"2026-03-30T12:01:15.637152","MEAN_MOTION":12.40392399,"ECCENTRICITY":0.00061792,"INCLINATION":102.2894,"RA_OF_ASC_NODE":102.6821,"ARG_OF_PERICENTER":269.2422,"MEAN_ANOMALY":245.4609,"EPHEMERIS_TYPE":0,"CLASSIFICATION_TYPE":"U","NORAD_CAT_ID":6920,"ELEMENT_SET_NO":999,"REV_AT_EPOCH":37214,"BSTAR":0.00022564217,"MEAN_MOTION_DOT":-1.6e-7,"MEAN_MOTION_DDOT":0},{"OBJECT_NAME":"TIROS N","OBJECT_ID":"1978-096A","EPOCH":"2026-03-30T12:53:32.188704","MEAN_MOTION":14.19347766,"ECCENTRICITY":0.00115858,"INCLINATION":98.4607,"RA_OF_ASC_NODE":114.1302,"ARG_OF_PERICENTER":109.0293,"MEAN_ANOMALY":251.214,"EPHEMERIS_TYPE":0,"CLASSIFICATION_TYPE":"U","NORAD_CAT_ID":11060,"ELEMENT_SET_NO":999,"REV_AT_EPOCH":66759,"BSTAR":0.00012719304,"MEAN_MOTION_DOT":2.26e-6,"MEAN_MOTION_DDOT":0},{"OBJECT_NAME":"NOAA 6","OBJECT_ID":"1979-057A","EPOCH":"2026-03-30T12:47:13.535520","MEAN_MOTION":14.35449257,"ECCENTRICITY":0.00108222,"INCLINATION":98.5718,"RA_OF_ASC_NODE":119.5574,"ARG_OF_PERICENTER":127.8102,"MEAN_ANOMALY":232.4065,"EPHEMERIS_TYPE":0,"CLASSIFICATION_TYPE":"U","NORAD_CAT_ID":11416,"ELEMENT_SET_NO":999,"REV_AT_EPOCH":43967,"BSTAR":0.00015538932,"MEAN_MOTION_DOT":4.03e-6,"MEAN_MOTION_DDOT":0},{"OBJECT_NAME":"NOAA 8","OBJECT_ID":"1983-022A","EPOCH":"2026-03-30T13:10:07.288608","MEAN_MOTION":14.29775071,"ECCENTRICITY":0.00157008,"INCLINATION":98.7363,"RA_OF_ASC_NODE":102.4151,"ARG_OF_PERICENTER":126.3,"MEAN_ANOMALY":233.9634,"EPHEMERIS_TYPE":0,"CLASSIFICATION_TYPE":"U","NORAD_CAT_ID":13923,"ELEMENT_SET_NO":999,"REV_AT_EPOCH":23983,"BSTAR":9.351807e-5,"MEAN_MOTION_DOT":1.96e-6,"MEAN_MOTION_DDOT":0},{"OBJECT_NAME":"NOAA 10","OBJECT_ID":"1986-073A","EPOCH":"2026-03-30T13:21:48.949920","MEAN_MOTION":14.29152738,"ECCENTRICITY":0.00112348,"INCLINATION":98.7018,"RA_OF_ASC_NODE":82.9113,"ARG_OF_PERICENTER":222.3667,"MEAN_ANOMALY":248.4,"EPHEMERIS_TYPE":0,"CLASSIFICATION_TYPE":"U","NORAD_CAT_ID":16969,"ELEMENT_SET_NO":999,"REV_AT_EPOCH":5818,"BSTAR":9.1688756e-5,"MEAN_MOTION_DOT":1.88e-6,"MEAN_MOTION_DDOT":0},{"OBJECT_NAME":"NOAA 11","OBJECT_ID":"1988-089A","EPOCH":"2026-03-30T13:31:31.202112","MEAN_MOTION":14.15825469,"ECCENTRICITY":0.00113675,"INCLINATION":98.6129,"RA_OF_ASC_NODE":37.9042,"ARG_OF_PERICENTER":158.3986,"MEAN_ANOMALY":201.7671,"EPHEMERIS_TYPE":0,"CLASSIFICATION_TYPE":"U","NORAD_CAT_ID":19531,"ELEMENT_SET_NO":999,"REV_AT_EPOCH":93635,"BSTAR":5.3278148e-5,"MEAN_MOTION_DOT":6.2e-7,"MEAN_MOTION_DDOT":0},{"OBJECT_NAME":"NOAA 12","OBJECT_ID":"1991-032A","EPOCH":"2026-03-30T13:58:26.264352","MEAN_MOTION":14.26724267,"ECCENTRICITY":0.0012505,"INCLINATION":98.6174,"RA_OF_ASC_NODE":79.2615,"ARG_OF_PERICENTER":257.2685,"MEAN_ANOMALY":102.7098,"EPHEMERIS_TYPE":0,"CLASSIFICATION_TYPE":"U","NORAD_CAT_ID":21263,"ELEMENT_SET_NO":999,"REV_AT_EPOCH":81375,"BSTAR":7.5533833e-5,"MEAN_MOTION_DOT":1.39e-6,"MEAN_MOTION_DDOT":0},{"OBJECT_NAME":"NOAA 13","OBJECT_ID":"1993-050A","EPOCH":"2026-03-30T14:24:25.580448","MEAN_MOTION":14.13643394,"ECCENTRICITY":0.00095077,"INCLINATION":98.6964,"RA_OF_ASC_NODE":36.7678,"ARG_OF_PERICENTER":0.8863,"MEAN_ANOMALY":359.2325,"EPHEMERIS_TYPE":0,"CLASSIFICATION_TYPE":"U","NORAD_CAT_ID":22739,"ELEMENT_SET_NO":999,"REV_AT_EPOCH":68227,"BSTAR":9.6495538e-5,"MEAN_MOTION_DOT":1.39e-6,"MEAN_MOTION_DDOT":0},{"OBJECT_NAME":"NOAA 14","OBJECT_ID":"1994-089A","EPOCH":"2026-03-30T13:07:31.962144","MEAN_MOTION":14.14660035,"ECCENTRICITY":0.00086537,"INCLINATION":98.5057,"RA_OF_ASC_NODE":62.776,"ARG_OF_PERICENTER":315.1246,"MEAN_ANOMALY":44.9228,"EPHEMERIS_TYPE":0,"CLASSIFICATION_TYPE":"U","NORAD_CAT_ID":23455,"ELEMENT_SET_NO":999,"REV_AT_EPOCH":61208,"BSTAR":6.9641386e-5,"MEAN_MOTION_DOT":9.3e-7,"MEAN_MOTION_DDOT":0},{"OBJECT_NAME":"NOAA 15","OBJECT_ID":"1998-030A","EPOCH":"2026-03-30T12:31:21.063648","MEAN_MOTION":14.27120933,"ECCENTRICITY":0.00096155,"INCLINATION":98.5137,"RA_OF_ASC_NODE":112.2572,"ARG_OF_PERICENTER":212.3375,"MEAN_ANOMALY":147.7218,"EPHEMERIS_TYPE":0,"CLASSIFICATION_TYPE":"U","NORAD_CAT_ID":25338,"ELEMENT_SET_NO":999,"REV_AT_EPOCH":45007,"BSTAR":9.0688382e-5,"MEAN_MOTION_DOT":1.78e-6,"MEAN_MOTION_DDOT":0},{"OBJECT_NAME":"NOAA 16","OBJECT_ID":"2000-055A","EPOCH":"2026-03-30T13:04:39.583776","MEAN_MOTION":14.13903968,"ECCENTRICITY":0.0010771,"INCLINATION":98.4684,"RA_OF_ASC_NODE":107.9596,"ARG_OF_PERICENTER":161.1536,"MEAN_ANOMALY":199.0039,"EPHEMERIS_TYPE":0,"CLASSIFICATION_TYPE":"U","NORAD_CAT_ID":26536,"ELEMENT_SET_NO":999,"REV_AT_EPOCH":61261,"BSTAR":9.4684238e-5,"MEAN_MOTION_DOT":1.39e-6,"MEAN_MOTION_DDOT":0}]
