{"fetched_at":"2026-03-31T05:47:18Z","count":15575,"tles":[{"name":"NOAA 15","line1":"1 25338U 98030A   26089.52177157  .00000178  00000+0  90688-4 0  9991","line2":"2 25338  98.5137 112.2572 0009615 212.3375 147.7218 14.27120933450078","category":"Weather"},{"name":"NOAA 2 (ITOS-D)","line1":"1 06235U 72082A   26089.58263290 -.00000018  00000+0  18146-3 0  9997","line2":"2 06235 102.0145 107.2768 0003770 323.9262 147.1458 12.53212529445102","category":"Weather"},{"name":"TIROS N","line1":"1 11060U 78096A   26089.53717811  .00000226  00000+0  12719-3 0  9998","line2":"2 11060  98.4607 114.1302 0011585 109.0293 251.2140 14.19347766667596","category":"Other"},{"name":"NOAA 16","line1":"1 26536U 00055A   26089.54490259  .00000139  00000+0  94684-4 0  9992","line2":"2 26536  98.4684 107.9596 0010771 161.1536 199.0039 14.13903968612610","category":"Weather"},{"name":"NOAA 3","line1":"1 06920U 73086A   26089.50087543 -.00000016  00000+0  22564-3 0  9997","line2":"2 06920 102.2894 102.6821 0006179 269.2422 245.4609 12.40392399372144","category":"Weather"},{"name":"NOAA 14","line1":"1 23455U 94089A   26089.54689771  .00000093  00000+0  69641-4 0  9992","line2":"2 23455  98.5057  62.7760 0008653 315.1246  44.9228 14.14660035612083","category":"Weather"},{"name":"NOAA 13","line1":"1 22739U 93050A   26089.60029607  .00000139  00000+0  96496-4 0  9995","line2":"2 22739  98.6964  36.7678 0009507   0.8863 359.2325 14.13643394682272","category":"Weather"},{"name":"NOAA 10","line1":"1 16969U 86073A   26089.55681655  .00000188  00000+0  91689-4 0  9994","line2":"2 16969  98.7018  82.9113 0011234 222.3667 248.4000 14.29152738 58181","category":"Weather"},{"name":"NOAA 8","line1":"1 13923U 83022A   26089.54869547  .00000196  00000+0  93518-4 0  9991","line2":"2 13923  98.7363 102.4151 0015700 126.3000 233.9634 14.29775071239833","category":"Weather"},{"name":"NOAA 6","line1":"1 11416U 79057A   26089.53279555  .00000403  00000+0  15539-3 0  9999","line2":"2 11416  98.5718 119.5574 0010822 127.8102 232.4065 14.35449257439674","category":"Weather"},{"name":"NOAA 1","line1":"1 04793U 70106A   26089.57317743 -.00000020  00000+0  14047-3 0  9990","line2":"2 04793 101.3468 127.7189 0032023 140.2346  27.6546 12.54049612530836","category":"Weather"},{"name":"NOAA 11","line1":"1 19531U 88089A   26089.56355558  .00000062  00000+0  53278-4 0  9995","line2":"2 19531  98.6129  37.9042 0011367 158.3986 201.7671 14.15825469936354","category":"Weather"},{"name":"NOAA 12","line1":"1 21263U 91032A   26089.58224843  .00000139  00000+0  75534-4 0  9990","line2":"2 21263  98.6174  79.2615 0012505 257.2685 102.7098 14.26724267813751","category":"Weather"}]}